{
  "type": "FeatureCollection",
  "features": [
    {
      "type": "Feature",
      "properties": {
        "norad_id": 41772,
        "name": "SKYSAT-C5",
        "group": "resource",
        "lat": -26.09595362351216,
        "lon": 27.2235568126607,
        "alt_km": 466.1519275800083,
        "timestamp": "2025-12-05T16:54:14.327184+00:00",
        "meta_object_name": "SKYSAT-C5",
        "meta_object_id": "2016-058C",
        "meta_epoch": "2025-12-04T15:59:40.599168",
        "meta_mean_motion": 15.35439271,
        "meta_eccentricity": 0.00027915,
        "meta_inclination": 97.0762,
        "meta_ra_of_asc_node": 22.7382,
        "meta_arg_of_pericenter": 112.5745,
        "meta_mean_anomaly": 247.5795,
        "meta_ephemeris_type": 0,
        "meta_classification_type": "U",
        "meta_norad_cat_id": 41772,
        "meta_element_set_no": 999,
        "meta_rev_at_epoch": 51392,
        "meta_bstar": 0.0029530445,
        "meta_mean_motion_dot": 0.00102855,
        "meta_mean_motion_ddot": 0,
        "tle_line1": "1 41772U 16058C   25338.66644212  .00102855  00000+0  29530-2 0  9994",
        "tle_line2": "2 41772  97.0762  22.7382 0002791 112.5745 247.5795 15.35439271513921"
      },
      "geometry": {
        "type": "Point",
        "coordinates": [
          27.2235568126607,
          -26.09595362351216
        ]
      }
    },
    {
      "type": "Feature",
      "properties": {
        "norad_id": 41773,
        "name": "SKYSAT-C2",
        "group": "resource",
        "lat": -62.05957080481913,
        "lon": 17.997077438844723,
        "alt_km": 463.52672018612975,
        "timestamp": "2025-12-05T16:54:14.327193+00:00",
        "meta_object_name": "SKYSAT-C2",
        "meta_object_id": "2016-058D",
        "meta_epoch": "2025-12-05T07:48:08.369568",
        "meta_mean_motion": 15.37020473,
        "meta_eccentricity": 0.00049532,
        "meta_inclination": 97.0361,
        "meta_ra_of_asc_node": 4.1676,
        "meta_arg_of_pericenter": 53.3829,
        "meta_mean_anomaly": 306.7871,
        "meta_ephemeris_type": 0,
        "meta_classification_type": "U",
        "meta_norad_cat_id": 41773,
        "meta_element_set_no": 999,
        "meta_rev_at_epoch": 51522,
        "meta_bstar": 0.00053576913,
        "meta_mean_motion_dot": 0.0001936,
        "meta_mean_motion_ddot": 0,
        "tle_line1": "1 41773U 16058D   25339.32509687  .00019360  00000+0  53577-3 0  9992",
        "tle_line2": "2 41773  97.0361   4.1676 0004953  53.3829 306.7871 15.37020473515224"
      },
      "geometry": {
        "type": "Point",
        "coordinates": [
          17.997077438844723,
          -62.05957080481913
        ]
      }
    },
    {
      "type": "Feature",
      "properties": {
        "norad_id": 41774,
        "name": "SKYSAT-C3",
        "group": "resource",
        "lat": -52.21623130506609,
        "lon": 22.807386880500083,
        "alt_km": 442.0617505405371,
        "timestamp": "2025-12-05T16:54:14.327202+00:00",
        "meta_object_name": "SKYSAT-C3",
        "meta_object_id": "2016-058E",
        "meta_epoch": "2025-12-05T01:34:41.179296",
        "meta_mean_motion": 15.44002146,
        "meta_eccentricity": 0.00013999,
        "meta_inclination": 96.9303,
        "meta_ra_of_asc_node": 13.1715,
        "meta_arg_of_pericenter": 100.8138,
        "meta_mean_anomaly": 259.3269,
        "meta_ephemeris_type": 0,
        "meta_classification_type": "U",
        "meta_norad_cat_id": 41774,
        "meta_element_set_no": 999,
        "meta_rev_at_epoch": 51607,
        "meta_bstar": 0.00073163747,
        "meta_mean_motion_dot": 0.00033364,
        "meta_mean_motion_ddot": 0,
        "tle_line1": "1 41774U 16058E   25339.06575439  .00033364  00000+0  73164-3 0  9996",
        "tle_line2": "2 41774  96.9303  13.1715 0001399 100.8138 259.3269 15.44002146516078"
      },
      "geometry": {
        "type": "Point",
        "coordinates": [
          22.807386880500083,
          -52.21623130506609
        ]
      }
    },
    {
      "type": "Feature",
      "properties": {
        "norad_id": 41785,
        "name": "ALSAT 1B",
        "group": "resource",
        "lat": -9.89450552091212,
        "lon": 170.43084347983938,
        "alt_km": 655.7211137435324,
        "timestamp": "2025-12-05T16:54:14.327211+00:00",
        "meta_object_name": "ALSAT 1B",
        "meta_object_id": "2016-059C",
        "meta_epoch": "2025-12-05T07:53:17.949408",
        "meta_mean_motion": 14.72063602,
        "meta_eccentricity": 0.00104796,
        "meta_inclination": 97.7818,
        "meta_ra_of_asc_node": 351.4382,
        "meta_arg_of_pericenter": 124.7977,
        "meta_mean_anomaly": 235.4218,
        "meta_ephemeris_type": 0,
        "meta_classification_type": "U",
        "meta_norad_cat_id": 41785,
        "meta_element_set_no": 999,
        "meta_rev_at_epoch": 49205,
        "meta_bstar": 0.00014949488,
        "meta_mean_motion_dot": 8.93e-06,
        "meta_mean_motion_ddot": 0,
        "tle_line1": "1 41785U 16059C   25339.32867997  .00000893  00000+0  14949-3 0  9998",
        "tle_line2": "2 41785  97.7818 351.4382 0010479 124.7977 235.4218 14.72063602492057"
      },
      "geometry": {
        "type": "Point",
        "coordinates": [
          170.43084347983938,
          -9.89450552091212
        ]
      }
    },
    {
      "type": "Feature",
      "properties": {
        "norad_id": 41787,
        "name": "PATHFINDER 1",
        "group": "resource",
        "lat": 27.953931940600057,
        "lon": -21.37452006059348,
        "alt_km": 662.679365121383,
        "timestamp": "2025-12-05T16:54:14.327219+00:00",
        "meta_object_name": "PATHFINDER 1",
        "meta_object_id": "2016-059E",
        "meta_epoch": "2025-12-05T06:57:21.032928",
        "meta_mean_motion": 14.67300899,
        "meta_eccentricity": 0.00300089,
        "meta_inclination": 97.8138,
        "meta_ra_of_asc_node": 342.4092,
        "meta_arg_of_pericenter": 103.8306,
        "meta_mean_anomaly": 256.6242,
        "meta_ephemeris_type": 0,
        "meta_classification_type": "U",
        "meta_norad_cat_id": 41787,
        "meta_element_set_no": 999,
        "meta_rev_at_epoch": 49127,
        "meta_bstar": 0.00026387925,
        "meta_mean_motion_dot": 1.452e-05,
        "meta_mean_motion_ddot": 0,
        "tle_line1": "1 41787U 16059E   25339.28982677  .00001452  00000+0  26388-3 0  9990",
        "tle_line2": "2 41787  97.8138 342.4092 0030008 103.8306 256.6242 14.67300899491278"
      },
      "geometry": {
        "type": "Point",
        "coordinates": [
          -21.37452006059348,
          27.953931940600057
        ]
      }
    },
    {
      "type": "Feature",
      "properties": {
        "norad_id": 41790,
        "name": "SCATSAT 1",
        "group": "resource",
        "lat": 81.29130584775116,
        "lon": -32.98463246569931,
        "alt_km": 607.5861807438678,
        "timestamp": "2025-12-05T16:54:14.327228+00:00",
        "meta_object_name": "SCATSAT 1",
        "meta_object_id": "2016-059H",
        "meta_epoch": "2025-12-05T03:31:14.524032",
        "meta_mean_motion": 14.78896376,
        "meta_eccentricity": 0.00559103,
        "meta_inclination": 98.1474,
        "meta_ra_of_asc_node": 35.7224,
        "meta_arg_of_pericenter": 152.0704,
        "meta_mean_anomaly": 208.3527,
        "meta_ephemeris_type": 0,
        "meta_classification_type": "U",
        "meta_norad_cat_id": 41790,
        "meta_element_set_no": 999,
        "meta_rev_at_epoch": 7290,
        "meta_bstar": 0.00050243802,
        "meta_mean_motion_dot": 3.745e-05,
        "meta_mean_motion_ddot": 0,
        "tle_line1": "1 41790U 16059H   25339.14669588  .00003745  00000+0  50244-3 0  9997",
        "tle_line2": "2 41790  98.1474  35.7224 0055910 152.0704 208.3527 14.78896376 72902"
      },
      "geometry": {
        "type": "Point",
        "coordinates": [
          -32.98463246569931,
          81.29130584775116
        ]
      }
    },
    {
      "type": "Feature",
      "properties": {
        "norad_id": 41875,
        "name": "GOKTURK 1A",
        "group": "resource",
        "lat": -40.04998919186581,
        "lon": 45.25047547788567,
        "alt_km": 691.4388613097235,
        "timestamp": "2025-12-05T16:54:14.327237+00:00",
        "meta_object_name": "GOKTURK 1A",
        "meta_object_id": "2016-073A",
        "meta_epoch": "2025-12-05T07:41:26.932704",
        "meta_mean_motion": 14.62765901,
        "meta_eccentricity": 0.00012426,
        "meta_inclination": 98.1431,
        "meta_ra_of_asc_node": 231.7846,
        "meta_arg_of_pericenter": 82.1977,
        "meta_mean_anomaly": 277.9366,
        "meta_ephemeris_type": 0,
        "meta_classification_type": "U",
        "meta_norad_cat_id": 41875,
        "meta_element_set_no": 999,
        "meta_rev_at_epoch": 48048,
        "meta_bstar": 0.00017894904,
        "meta_mean_motion_dot": 8.66e-06,
        "meta_mean_motion_ddot": 0,
        "tle_line1": "1 41875U 16073A   25339.32045061  .00000866  00000+0  17895-3 0  9997",
        "tle_line2": "2 41875  98.1431 231.7846 0001242  82.1977 277.9366 14.62765901480482"
      },
      "geometry": {
        "type": "Point",
        "coordinates": [
          45.25047547788567,
          -40.04998919186581
        ]
      }
    }
  ]
}